IRIDIUM 39              
1 25042U 97069D   25142.78847314  .00000493  00000+0  12385-3 0  9997
2 25042  86.3946 222.0123 0019035  38.3774 321.8780 14.49192485445541
IRIDIUM 38              
1 25043U 97069E   25142.56347876  .00000399  00000+0  12531-3 0  9990
2 25043  86.3969 243.9291 0003060 134.7678 225.3769 14.38096782442273
IRIDIUM 42              
1 25077U 97077A   25142.53822627  .00000352  00000+0  11371-3 0  9995
2 25077  86.3966 250.0791 0002184 114.8019 245.3405 14.36332538437515
IRIDIUM 44              
1 25078U 97077B   25143.18718954  .00000359  00000+0  10736-3 0  9996
2 25078  86.3982 231.7960 0004137 102.1048 258.0615 14.40223102440137
IRIDIUM 45              
1 25104U 97082A   25142.80842172  .00017633  00000+0  63878-3 0  9998
2 25104  86.3596  60.2072 0121984  67.3224 294.0862 15.21383343448434
IRIDIUM 24              
1 25105U 97082B   25142.84550240  .00000468  00000+0  13632-3 0  9996
2 25105  86.3892  91.0495 0012142 151.3793 208.8076 14.42074902439817
IRIDIUM 51              
1 25262U 98018A   25142.86819064  .00035360  00000+0  81961-3 0  9993
2 25262  86.3844  68.3534 0088512 350.2269   9.7257 15.38149968443355
IRIDIUM 57              
1 25273U 98019B   25142.52695627  .00000339  00000+0  11028-3 0  9991
2 25273  86.3967 156.0114 0002315  92.4658 267.6804 14.35876971421105
